[{"OBJECT_NAME":"STARLINK-36862","OBJECT_ID":"2026-039T","EPOCH":"2026-03-15T06:00:00.999648","MEAN_MOTION":15.7602528,"ECCENTRICITY":0.00012271,"INCLINATION":42.9997,"RA_OF_ASC_NODE":20.6957,"ARG_OF_PERICENTER":274.0414,"MEAN_ANOMALY":223.1562,"EPHEMERIS_TYPE":0,"CLASSIFICATION_TYPE":"U","NORAD_CAT_ID":68003,"ELEMENT_SET_NO":999,"REV_AT_EPOCH":377,"BSTAR":-0.01343393,"MEAN_MOTION_DOT":-0.01878215,"MEAN_MOTION_DDOT":0},{"OBJECT_NAME":"STARLINK-36888","OBJECT_ID":"2026-039U","EPOCH":"2026-03-15T06:00:00.999648","MEAN_MOTION":15.75693076,"ECCENTRICITY":0.00011856,"INCLINATION":42.9997,"RA_OF_ASC_NODE":20.7327,"ARG_OF_PERICENTER":271.6874,"MEAN_ANOMALY":210.9547,"EPHEMERIS_TYPE":0,"CLASSIFICATION_TYPE":"U","NORAD_CAT_ID":68004,"ELEMENT_SET_NO":999,"REV_AT_EPOCH":377,"BSTAR":-0.013590879,"MEAN_MOTION_DOT":-0.01872977,"MEAN_MOTION_DDOT":0},{"OBJECT_NAME":"STARLINK-36910","OBJECT_ID":"2026-039V","EPOCH":"2026-03-14T20:17:11.885280","MEAN_MOTION":15.81949852,"ECCENTRICITY":0.00051452,"INCLINATION":42.9987,"RA_OF_ASC_NODE":23.148,"ARG_OF_PERICENTER":216.7099,"MEAN_ANOMALY":143.3421,"EPHEMERIS_TYPE":0,"CLASSIFICATION_TYPE":"U","NORAD_CAT_ID":68005,"ELEMENT_SET_NO":999,"REV_AT_EPOCH":245,"BSTAR":0.0019957939,"MEAN_MOTION_DOT":0.00440599,"MEAN_MOTION_DDOT":0},{"OBJECT_NAME":"STARLINK-36889","OBJECT_ID":"2026-039W","EPOCH":"2026-03-15T06:00:00.999648","MEAN_MOTION":15.74067683,"ECCENTRICITY":0.00012915,"INCLINATION":42.9999,"RA_OF_ASC_NODE":20.7136,"ARG_OF_PERICENTER":273.981,"MEAN_ANOMALY":215.7617,"EPHEMERIS_TYPE":0,"CLASSIFICATION_TYPE":"U","NORAD_CAT_ID":68006,"ELEMENT_SET_NO":999,"REV_AT_EPOCH":377,"BSTAR":-0.014632547,"MEAN_MOTION_DOT":-0.01876401,"MEAN_MOTION_DDOT":0},{"OBJECT_NAME":"STARLINK-36592","OBJECT_ID":"2026-039X","EPOCH":"2026-03-14T08:06:34.045056","MEAN_MOTION":15.82138752,"ECCENTRICITY":0.00016501,"INCLINATION":42.9994,"RA_OF_ASC_NODE":26.2236,"ARG_OF_PERICENTER":258.5091,"MEAN_ANOMALY":101.5596,"EPHEMERIS_TYPE":0,"CLASSIFICATION_TYPE":"U","NORAD_CAT_ID":68007,"ELEMENT_SET_NO":999,"REV_AT_EPOCH":237,"BSTAR":0.0015301359,"MEAN_MOTION_DOT":0.00336422,"MEAN_MOTION_DDOT":0},{"OBJECT_NAME":"STARLINK-36911","OBJECT_ID":"2026-039Y","EPOCH":"2026-03-14T08:05:38.752512","MEAN_MOTION":15.81312629,"ECCENTRICITY":0.000269,"INCLINATION":42.9989,"RA_OF_ASC_NODE":26.2186,"ARG_OF_PERICENTER":279.3856,"MEAN_ANOMALY":80.6711,"EPHEMERIS_TYPE":0,"CLASSIFICATION_TYPE":"U","NORAD_CAT_ID":68008,"ELEMENT_SET_NO":999,"REV_AT_EPOCH":237,"BSTAR":-0.0025901433,"MEAN_MOTION_DOT":-0.0049916,"MEAN_MOTION_DDOT":0},{"OBJECT_NAME":"STARLINK-36956","OBJECT_ID":"2026-039Z","EPOCH":"2026-03-15T06:00:00.999648","MEAN_MOTION":15.75791847,"ECCENTRICITY":0.00012849,"INCLINATION":42.9998,"RA_OF_ASC_NODE":20.6552,"ARG_OF_PERICENTER":269.1137,"MEAN_ANOMALY":243.9637,"EPHEMERIS_TYPE":0,"CLASSIFICATION_TYPE":"U","NORAD_CAT_ID":68009,"ELEMENT_SET_NO":999,"REV_AT_EPOCH":377,"BSTAR":-0.0135601,"MEAN_MOTION_DOT":-0.01876531,"MEAN_MOTION_DDOT":0},{"OBJECT_NAME":"STARLINK-36953","OBJECT_ID":"2026-039AA","EPOCH":"2026-03-14T21:40:26.086944","MEAN_MOTION":15.82443878,"ECCENTRICITY":0.00034254,"INCLINATION":42.9993,"RA_OF_ASC_NODE":22.7154,"ARG_OF_PERICENTER":238.9687,"MEAN_ANOMALY":121.0849,"EPHEMERIS_TYPE":0,"CLASSIFICATION_TYPE":"U","NORAD_CAT_ID":68010,"ELEMENT_SET_NO":999,"REV_AT_EPOCH":246,"BSTAR":0.0036774868,"MEAN_MOTION_DOT":0.00874293,"MEAN_MOTION_DDOT":0},{"OBJECT_NAME":"STARLINK-36991","OBJECT_ID":"2026-039AB","EPOCH":"2026-03-15T06:00:00.999648","MEAN_MOTION":15.65176407,"ECCENTRICITY":0.00013847,"INCLINATION":42.9997,"RA_OF_ASC_NODE":20.884,"ARG_OF_PERICENTER":273.5767,"MEAN_ANOMALY":147.118,"EPHEMERIS_TYPE":0,"CLASSIFICATION_TYPE":"U","NORAD_CAT_ID":68011,"ELEMENT_SET_NO":999,"REV_AT_EPOCH":377,"BSTAR":-0.021005508,"MEAN_MOTION_DOT":-0.01893632,"MEAN_MOTION_DDOT":0},{"OBJECT_NAME":"STARLINK-36936","OBJECT_ID":"2026-039AC","EPOCH":"2026-03-15T06:00:00.999648","MEAN_MOTION":15.75577436,"ECCENTRICITY":0.00010359,"INCLINATION":42.9996,"RA_OF_ASC_NODE":20.6039,"ARG_OF_PERICENTER":269.5609,"MEAN_ANOMALY":263.6844,"EPHEMERIS_TYPE":0,"CLASSIFICATION_TYPE":"U","NORAD_CAT_ID":68012,"ELEMENT_SET_NO":999,"REV_AT_EPOCH":377,"BSTAR":-0.013732594,"MEAN_MOTION_DOT":-0.01881363,"MEAN_MOTION_DDOT":0},{"OBJECT_NAME":"STARLINK-36967","OBJECT_ID":"2026-039AD","EPOCH":"2026-03-15T06:00:00.999648","MEAN_MOTION":15.66599278,"ECCENTRICITY":0.00014428,"INCLINATION":43.0001,"RA_OF_ASC_NODE":20.8569,"ARG_OF_PERICENTER":273.32,"MEAN_ANOMALY":158.5275,"EPHEMERIS_TYPE":0,"CLASSIFICATION_TYPE":"U","NORAD_CAT_ID":68013,"ELEMENT_SET_NO":999,"REV_AT_EPOCH":377,"BSTAR":-0.019872996,"MEAN_MOTION_DOT":-0.01897729,"MEAN_MOTION_DDOT":0},{"OBJECT_NAME":"STARLINK-36985","OBJECT_ID":"2026-039AE","EPOCH":"2026-03-15T03:41:58.077888","MEAN_MOTION":15.81952696,"ECCENTRICITY":0.00016848,"INCLINATION":42.9996,"RA_OF_ASC_NODE":21.1564,"ARG_OF_PERICENTER":315.1006,"MEAN_ANOMALY":44.9729,"EPHEMERIS_TYPE":0,"CLASSIFICATION_TYPE":"U","NORAD_CAT_ID":68014,"ELEMENT_SET_NO":999,"REV_AT_EPOCH":250,"BSTAR":0.0018925194,"MEAN_MOTION_DOT":0.00416518,"MEAN_MOTION_DDOT":0},{"OBJECT_NAME":"STARLINK-36335","OBJECT_ID":"2026-040A","EPOCH":"2026-03-15T06:00:00.999648","MEAN_MOTION":15.92083524,"ECCENTRICITY":0.00012488,"INCLINATION":97.2709,"RA_OF_ASC_NODE":22.8938,"ARG_OF_PERICENTER":109.2965,"MEAN_ANOMALY":314.6195,"EPHEMERIS_TYPE":0,"CLASSIFICATION_TYPE":"U","NORAD_CAT_ID":68015,"ELEMENT_SET_NO":999,"REV_AT_EPOCH":326,"BSTAR":-0.0044347244,"MEAN_MOTION_DOT":-0.0145723,"MEAN_MOTION_DDOT":0.00060512968},{"OBJECT_NAME":"STARLINK-36923","OBJECT_ID":"2026-040B","EPOCH":"2026-03-15T06:00:00.999648","MEAN_MOTION":15.92148655,"ECCENTRICITY":0.00012776,"INCLINATION":97.2715,"RA_OF_ASC_NODE":22.8983,"ARG_OF_PERICENTER":96.1541,"MEAN_ANOMALY":336.3055,"EPHEMERIS_TYPE":0,"CLASSIFICATION_TYPE":"U","NORAD_CAT_ID":68016,"ELEMENT_SET_NO":999,"REV_AT_EPOCH":331,"BSTAR":-0.0044642615,"MEAN_MOTION_DOT":-0.01471705,"MEAN_MOTION_DDOT":0.00061670926},{"OBJECT_NAME":"STARLINK-36568","OBJECT_ID":"2026-040C","EPOCH":"2026-03-15T06:00:00.999648","MEAN_MOTION":15.92192272,"ECCENTRICITY":0.00013811,"INCLINATION":97.2712,"RA_OF_ASC_NODE":22.8994,"ARG_OF_PERICENTER":84.7718,"MEAN_ANOMALY":351.7336,"EPHEMERIS_TYPE":0,"CLASSIFICATION_TYPE":"U","NORAD_CAT_ID":68017,"ELEMENT_SET_NO":999,"REV_AT_EPOCH":331,"BSTAR":-0.0044812043,"MEAN_MOTION_DOT":-0.01480532,"MEAN_MOTION_DDOT":0.00062385024},{"OBJECT_NAME":"STARLINK-36930","OBJECT_ID":"2026-040D","EPOCH":"2026-03-15T06:00:00.999648","MEAN_MOTION":15.92118,"ECCENTRICITY":0.00011906,"INCLINATION":97.2708,"RA_OF_ASC_NODE":22.8959,"ARG_OF_PERICENTER":99.4398,"MEAN_ANOMALY":328.7371,"EPHEMERIS_TYPE":0,"CLASSIFICATION_TYPE":"U","NORAD_CAT_ID":68018,"ELEMENT_SET_NO":999,"REV_AT_EPOCH":331,"BSTAR":-0.0044589272,"MEAN_MOTION_DOT":-0.01467659,"MEAN_MOTION_DDOT":0.00061338547},{"OBJECT_NAME":"STARLINK-36921","OBJECT_ID":"2026-040E","EPOCH":"2026-03-15T06:00:00.999648","MEAN_MOTION":15.92296919,"ECCENTRICITY":0.00012751,"INCLINATION":97.2721,"RA_OF_ASC_NODE":22.9037,"ARG_OF_PERICENTER":105.1703,"MEAN_ANOMALY":338.9459,"EPHEMERIS_TYPE":0,"CLASSIFICATION_TYPE":"U","NORAD_CAT_ID":68019,"ELEMENT_SET_NO":999,"REV_AT_EPOCH":331,"BSTAR":-0.0044657661,"MEAN_MOTION_DOT":-0.01483349,"MEAN_MOTION_DDOT":0.00062670293},{"OBJECT_NAME":"STARLINK-36928","OBJECT_ID":"2026-040F","EPOCH":"2026-03-15T06:00:00.999648","MEAN_MOTION":15.92258533,"ECCENTRICITY":0.00012706,"INCLINATION":97.2712,"RA_OF_ASC_NODE":22.9008,"ARG_OF_PERICENTER":99.2739,"MEAN_ANOMALY":340.7003,"EPHEMERIS_TYPE":0,"CLASSIFICATION_TYPE":"U","NORAD_CAT_ID":68020,"ELEMENT_SET_NO":999,"REV_AT_EPOCH":331,"BSTAR":-0.0044507809,"MEAN_MOTION_DOT":-0.01475536,"MEAN_MOTION_DDOT":0.00062036674},{"OBJECT_NAME":"STARLINK-36858","OBJECT_ID":"2026-040G","EPOCH":"2026-03-15T01:59:11.872320","MEAN_MOTION":16.06880902,"ECCENTRICITY":3.407e-5,"INCLINATION":97.2747,"RA_OF_ASC_NODE":22.7903,"ARG_OF_PERICENTER":89.7437,"MEAN_ANOMALY":270.3884,"EPHEMERIS_TYPE":0,"CLASSIFICATION_TYPE":"U","NORAD_CAT_ID":68021,"ELEMENT_SET_NO":999,"REV_AT_EPOCH":220,"BSTAR":-0.00026016823,"MEAN_MOTION_DOT":-0.00198969,"MEAN_MOTION_DDOT":1.8306812e-5},{"OBJECT_NAME":"STARLINK-36916","OBJECT_ID":"2026-040H","EPOCH":"2026-03-15T06:00:00.999648","MEAN_MOTION":15.92380935,"ECCENTRICITY":0.00012979,"INCLINATION":97.2715,"RA_OF_ASC_NODE":22.9066,"ARG_OF_PERICENTER":107.3728,"MEAN_ANOMALY":344.9738,"EPHEMERIS_TYPE":0,"CLASSIFICATION_TYPE":"U","NORAD_CAT_ID":68022,"ELEMENT_SET_NO":999,"REV_AT_EPOCH":331,"BSTAR":-0.0044881293,"MEAN_MOTION_DOT":-0.01497097,"MEAN_MOTION_DDOT":0.00063803885},{"OBJECT_NAME":"STARLINK-36871","OBJECT_ID":"2026-040J","EPOCH":"2026-03-15T06:00:00.999648","MEAN_MOTION":15.92420664,"ECCENTRICITY":0.00013473,"INCLINATION":97.2714,"RA_OF_ASC_NODE":22.9073,"ARG_OF_PERICENTER":97.1571,"MEAN_ANOMALY":359.3393,"EPHEMERIS_TYPE":0,"CLASSIFICATION_TYPE":"U","NORAD_CAT_ID":68023,"ELEMENT_SET_NO":999,"REV_AT_EPOCH":331,"BSTAR":-0.0044797742,"MEAN_MOTION_DOT":-0.01497382,"MEAN_MOTION_DDOT":0.00063852059},{"OBJECT_NAME":"STARLINK-36891","OBJECT_ID":"2026-040K","EPOCH":"2026-03-15T06:00:00.999648","MEAN_MOTION":15.92435552,"ECCENTRICITY":0.00013205,"INCLINATION":97.2715,"RA_OF_ASC_NODE":22.9097,"ARG_OF_PERICENTER":98.794,"MEAN_ANOMALY":2.5242,"EPHEMERIS_TYPE":0,"CLASSIFICATION_TYPE":"U","NORAD_CAT_ID":68024,"ELEMENT_SET_NO":999,"REV_AT_EPOCH":331,"BSTAR":-0.0045254616,"MEAN_MOTION_DOT":-0.0151363,"MEAN_MOTION_DDOT":0.00065150928},{"OBJECT_NAME":"STARLINK-36378","OBJECT_ID":"2026-040L","EPOCH":"2026-03-15T06:00:00.999648","MEAN_MOTION":15.92499105,"ECCENTRICITY":0.00012839,"INCLINATION":97.2736,"RA_OF_ASC_NODE":22.9147,"ARG_OF_PERICENTER":105.2084,"MEAN_ANOMALY":4.8945,"EPHEMERIS_TYPE":0,"CLASSIFICATION_TYPE":"U","NORAD_CAT_ID":68025,"ELEMENT_SET_NO":999,"REV_AT_EPOCH":327,"BSTAR":-0.004541192,"MEAN_MOTION_DOT":-0.01523762,"MEAN_MOTION_DDOT":0.00066003273}]
